GPS BIIA-23 (PRN 18)    
1 22877U 93068A   19133.02370875 -.00000041  00000-0  00000+0 0  9996
2 22877  54.6618  69.9920 0150933  79.3644 161.0709  2.00559941187169
GPS BIIR-2  (PRN 13)    
1 24876U 97035A   19133.58357661  .00000018  00000-0  00000+0 0  9997
2 24876  55.4598 199.8211 0033230  73.7204 286.7100  2.00564549159778
GPS BIIR-3  (PRN 11)    
1 25933U 99055A   19133.01603123 -.00000081  00000-0  00000+0 0  9992
2 25933  52.1041  47.3556 0164043 108.1706 128.9512  2.00559658143587
GPS BIIR-4  (PRN 20)    
1 26360U 00025A   19133.23304238  .00000070  00000-0  00000+0 0  9992
2 26360  53.3239 125.8951 0042261 137.1822 303.3305  2.00561449139274
GPS BIIR-5  (PRN 28)    
1 26407U 00040A   19131.92529973 -.00000024  00000-0  00000+0 0  9990
2 26407  56.2837 318.0117 0192540 275.9289 273.9461  2.00560464137927
GPS BIIR-6  (PRN 14)    
1 26605U 00071A   19133.28056403  .00000020  00000-0  00000+0 0  9993
2 26605  55.0342 197.2944 0108020 249.2560 111.0588  2.00560373135554
GPS BIIR-8  (PRN 16)    
1 27663U 03005A   19133.24008572 -.00000030  00000-0  00000+0 0  9990
2 27663  56.3435 317.7326 0106922  31.8695 147.4154  2.00575791119310
GPS BIIR-9  (PRN 21)    
1 27704U 03010A   19132.79182708 -.00000040  00000-0  00000-0 0  9997
2 27704  54.3365  69.4820 0248905 277.1569 263.2488  2.00555414118113
GPS BIIR-10 (PRN 22)    
1 28129U 03058A   19133.27651831  .00000073  00000-0  00000+0 0  9997
2 28129  53.1358 128.6846 0074678 282.2079  76.9708  2.00547372112827
GPS BIIR-11 (PRN 19)    
1 28190U 04009A   19133.14744806 -.00000086  00000-0  00000+0 0  9998
2 28190  56.2616  18.5165 0093571  79.8334 186.4148  2.00568521110994
GPS BIIR-12 (PRN 23)    
1 28361U 04023A   19133.51516514  .00000031  00000-0  00000+0 0  9997
2 28361  54.0480 191.6886 0133717 231.0190 214.2676  2.00573105109089
GPS BIIR-13 (PRN 02)    
1 28474U 04045A   19132.74439573 -.00000040  00000-0  00000-0 0  9991
2 28474  54.6949  69.2223 0191432 260.3019 350.0207  2.00559671106435
GPS BIIRM-1 (PRN 17)    
1 28874U 05038A   19133.14973750 -.00000085  00000-0  00000+0 0  9991
2 28874  56.3862  15.8647 0130713 262.1406  26.3241  2.00556244 99844
GPS BIIRM-2 (PRN 31)    
1 29486U 06042A   19133.44605844 -.00000039  00000-0  00000+0 0  9995
2 29486  55.0140 254.4320 0092003 358.8319  65.8689  2.00570854 92562
GPS BIIRM-3 (PRN 12)    
1 29601U 06052A   19133.30343970 -.00000030  00000-0  00000+0 0  9990
2 29601  56.3234 316.6467 0074437  60.9532 299.7999  2.00566828 91478
GPS BIIRM-4 (PRN 15)    
1 32260U 07047A   19133.11595272  .00000034  00000-0  00000+0 0  9996
2 32260  53.1712 187.4257 0111327  43.4651 317.4794  2.00561772 84845
GPS BIIRM-5 (PRN 29)    
1 32384U 07062A   19132.82238606 -.00000084  00000-0  00000-0 0  9999
2 32384  56.4697  16.5144 0008074  96.5314 187.8223  2.00554296 83552
GPS BIIRM-6 (PRN 07)    
1 32711U 08012A   19133.52018088 -.00000040  00000-0  00000+0 0  9998
2 32711  54.7534 253.6272 0128186 219.4025 139.6507  2.00554114 81776
GPS BIIRM-8 (PRN 05)    
1 35752U 09043A   19132.16568771  .00000076  00000-0  00000+0 0  9997
2 35752  54.4186 131.3589 0054732  38.5700  87.9576  2.00562031 71331
GPS BIIF-1  (PRN 25)    
1 36585U 10022A   19132.31589051 -.00000024  00000-0  00000+0 0  9996
2 36585  55.6041 313.0111 0082632  50.2197 287.4203  2.00558775 65584
GPS BIIF-2  (PRN 01)    
1 37753U 11036A   19133.55538506 -.00000038  00000-0  00000+0 0  9991
2 37753  55.8929  73.1108 0086518  38.9682 200.6664  2.00565988 57299
GPS BIIF-3  (PRN 24)    
1 38833U 12053A   19133.21041293 -.00000038  00000-0  00000+0 0  9996
2 38833  53.7880 249.8752 0081640  33.4628 327.0454  2.00557963 48341
GPS BIIF-4  (PRN 27)    
1 39166U 13023A   19133.07031981 -.00000083  00000-0  00000+0 0  9991
2 39166  56.0695  12.6544 0069781  26.0008 334.3895  2.00567661 43888
GPS BIIF-5  (PRN 30)    
1 39533U 14008A   19133.06427362 -.00000036  00000-0  00000+0 0  9992
2 39533  53.9204 255.2722 0040407 192.6355 167.2546  2.00572642 38245
GPS BIIF-6  (PRN 06)    
1 39741U 14026A   19133.35037726 -.00000037  00000-0  00000+0 0  9997
2 39741  55.8727  72.6445 0017819 294.1856  65.6084  2.00574655 36539
GPS BIIF-7  (PRN 09)    
1 40105U 14045A   19132.44434454  .00000025  00000-0  00000+0 0  9998
2 40105  54.5743 192.0168 0010203 103.1923 256.9910  2.00562404 34969
GPS BIIF-8  (PRN 03)    
1 40294U 14068A   19133.30641994  .00000082  00000-0  00000+0 0  9990
2 40294  55.1710 132.8395 0020308  27.8329 332.2969  2.00549614 33208
GPS BIIF-9  (PRN 26)    
1 40534U 15013A   19132.45301202 -.00000027  00000-0  00000+0 0  9998
2 40534  54.5327 311.3846 0037052   6.3563 353.6924  2.00571798 30251
GPS BIIF-10  (PRN 08)   
1 40730U 15033A   19131.61443498 -.00000079  00000-0  00000+0 0  9996
2 40730  55.5946  12.0686 0044727 343.3404  16.5551  2.00556492 27991
GPS BIIF-11  (PRN 10)   
1 41019U 15062A   19133.15898044  .00000082  00000-0  00000+0 0  9994
2 41019  55.1723 132.6598 0046424 208.2413 151.5273  2.00564585 25842
GPS BIIF-12  (PRN 32)   
1 41328U 16007A   19132.75634069  .00000026  00000-0  00000+0 0  9995
2 41328  54.8187 192.3843 0031669 219.5831 140.2544  2.00573410 23891
